CYGNUS NG-23            
1 65616U 25208A   25344.15480881  .00014837  00000+0  27248-3 0  9992
2 65616  51.6306 155.2782 0003395 228.7876 131.2820 15.49465664   228
DRAGONFLY               
1 65729U 98067XH  25343.49474648  .00190953  00000+0  14915-2 0  9990
2 65729  51.6245 152.3636 0006537 255.9884 104.0387 15.70499103 12658
1998-067XK              
1 65731U 98067XK  25344.18068127  .00123207  00000+0  12136-2 0  9992
2 65731  51.6282 150.2100 0005212 229.5199 130.5343 15.65053427 12745
RSP-03                  
1 65732U 98067XL  25343.87137280  .00152975  00000+0  13517-2 0  9993
2 65732  51.6264 151.1351 0006032 231.1748 128.8710 15.67636540 12714
GHS-01                  
1 65733U 98067XM  25343.76966236  .00225395  00000+0  15642-2 0  9991
2 65733  51.6282 150.4557 0006937 260.0742  99.9474 15.73188946 12718
YOTSUBA-KULOVER         
1 65941U 98067XN  25344.27717768  .00091734  00000+0  11500-2 0  9990
2 65941  51.6286 152.3518 0001563 229.1670 130.9187 15.58984772  9477
BOTAN                   
1 65942U 98067XP  25343.77617591  .00125565  00000+0  13930-2 0  9997
2 65942  51.6281 154.2559 0003533 214.7567 145.3196 15.62021860  9401
E-KAGAKU-1              
1 65943U 98067XQ  25344.27717868  .00100705  00000+0  12589-2 0  9990
2 65943  51.6298 152.3458 0005250 191.2269 168.8608 15.59004320  9476
HRC MONOBLOCK CAMERA    
1 66052U 98067XR  25344.07885491  .00046287  00000+0  70943-3 0  9991
2 66052  51.6294 154.7721 0003676 173.0963 187.0078 15.53848796  8427
HTV-X1                  
1 66174U 25241A   25344.15480881  .00014837  00000+0  27248-3 0  9999
2 66174  51.6306 155.2782 0003395 228.7876 131.2820 15.49465664   510
SZ-21 MODULE            
1 66515U 25246C   25344.17413834  .00033821  00000+0  37413-3 0  9998
2 66515  41.4772  31.6946 0006303 246.4394 113.5783 15.62287681  4045
SHENZHOU-22             
1 66645U 25272A   25344.28052965  .00034646  00000+0  43407-3 0  9993
2 66645  41.4682  31.6356 0008802  10.5172 349.5849 15.59014677263572
